{"type": "FeatureCollection", "features": [ {"type": "Feature", "properties": {"norad_id": 39547, "name": "COSMOS 2251 DEB", "group": "cosmos-2251-debris", "lat": 71.67519060334004, "lon": 108.24183905880093, "alt_km": 547.6223974125105, "timestamp": "2025-12-27T10:28:59.192341+00:00", "meta": {"OBJECT_NAME": "COSMOS 2251 DEB", "OBJECT_ID": "1993-036BUD", "EPOCH": "2025-12-23T08:58:43.079808", "MEAN_MOTION": 15.04053977, "ECCENTRICITY": 0.00057754, "INCLINATION": 74.0016, "RA_OF_ASC_NODE": 356.5965, "ARG_OF_PERICENTER": 355.0071, "MEAN_ANOMALY": 72.813, "EPHEMERIS_TYPE": 0, "CLASSIFICATION_TYPE": "U", "NORAD_CAT_ID": 39547, "ELEMENT_SET_NO": 999, "REV_AT_EPOCH": 64185, "BSTAR": 0.003298855, "MEAN_MOTION_DOT": 0.00045935, "MEAN_MOTION_DDOT": 0}, "tle": {"line1": "1 39547U 93036BUD 25357.37410972  .00045935  00000+0  32989-2 0  9992", "line2": "2 39547  74.0016 356.5965 0005775 355.0071  72.8130 15.04053977641858"}}, "geometry": {"type": "Point", "coordinates": [108.24183905880093, 71.67519060334004]}}, {"type": "Feature", "properties": {"norad_id": 39553, "name": "COSMOS 2251 DEB", "group": "cosmos-2251-debris", "lat": 4.23005048993668, "lon": 123.35401169619314, "alt_km": 915.2699814564075, "timestamp": "2025-12-27T10:28:59.192351+00:00", "meta": {"OBJECT_NAME": "COSMOS 2251 DEB", "OBJECT_ID": "1993-036BUK", "EPOCH": "2025-12-19T04:26:08.787552", "MEAN_MOTION": 13.99893274, "ECCENTRICITY": 0.02023146, "INCLINATION": 74.0301, "RA_OF_ASC_NODE": 318.8543, "ARG_OF_PERICENTER": 93.0274, "MEAN_ANOMALY": 269.4029, "EPHEMERIS_TYPE": 0, "CLASSIFICATION_TYPE": "U", "NORAD_CAT_ID": 39553, "ELEMENT_SET_NO": 999, "REV_AT_EPOCH": 75707, "BSTAR": 0.00037697212, "MEAN_MOTION_DOT": 6.38e-06, "MEAN_MOTION_DDOT": 0}, "tle": {"line1": "1 39553U 93036BUK 25353.18482393  .00000638  00000+0  37697-3 0  9993", "line2": "2 39553  74.0301 318.8543 0202314  93.0274 269.4029 13.99893274757074"}}, "geometry": {"type": "Point", "coordinates": [123.35401169619314, 4.23005048993668]}}, {"type": "Feature", "properties": {"norad_id": 39554, "name": "COSMOS 2251 DEB", "group": "cosmos-2251-debris", "lat": -10.108238281196506, "lon": -128.74852686344826, "alt_km": 529.7465667704782, "timestamp": "2025-12-27T10:28:59.192362+00:00", "meta": {"OBJECT_NAME": "COSMOS 2251 DEB", "OBJECT_ID": "1993-036BUL", "EPOCH": "2025-12-10T06:12:03.924864", "MEAN_MOTION": 15.10130993, "ECCENTRICITY": 0.0002993, "INCLINATION": 74.0187, "RA_OF_ASC_NODE": 269.7383, "ARG_OF_PERICENTER": 74.7531, "MEAN_ANOMALY": 81.5927, "EPHEMERIS_TYPE": 0, "CLASSIFICATION_TYPE": "U", "NORAD_CAT_ID": 39554, "ELEMENT_SET_NO": 999, "REV_AT_EPOCH": 64347, "BSTAR": 0.0046896, "MEAN_MOTION_DOT": 0.000773, "MEAN_MOTION_DDOT": 0}, "tle": {"line1": "1 39554U 93036BUL 25344.25837876  .00077300  00000+0  46896-2 0  9992", "line2": "2 39554  74.0187 269.7383 0002993  74.7531  81.5927 15.10130993643471"}}, "geometry": {"type": "Point", "coordinates": [-128.74852686344826, -10.108238281196506]}}, {"type": "Feature", "properties": {"norad_id": 39583, "name": "COSMOS 2251 DEB", "group": "cosmos-2251-debris", "lat": -26.671788830164434, "lon": 47.295899783376825, "alt_km": 746.0334543046156, "timestamp": "2025-12-27T10:28:59.192372+00:00", "meta": {"OBJECT_NAME": "COSMOS 2251 DEB", "OBJECT_ID": "1993-036BUN", "EPOCH": "2025-12-24T09:12:01.945440", "MEAN_MOTION": 14.60635588, "ECCENTRICITY": 0.01369797, "INCLINATION": 73.9311, "RA_OF_ASC_NODE": 224.8404, "ARG_OF_PERICENTER": 335.8722, "MEAN_ANOMALY": 23.6064, "EPHEMERIS_TYPE": 0, "CLASSIFICATION_TYPE": "U", "NORAD_CAT_ID": 39583, "ELEMENT_SET_NO": 999, "REV_AT_EPOCH": 61949, "BSTAR": 0.0015752368, "MEAN_MOTION_DOT": 8.73e-05, "MEAN_MOTION_DDOT": 0}, "tle": {"line1": "1 39583U 93036BUN 25358.38335585  .00008730  00000+0  15752-2 0  9991", "line2": "2 39583  73.9311 224.8404 0136979 335.8722  23.6064 14.60635588619499"}}, "geometry": {"type": "Point", "coordinates": [47.295899783376825, -26.671788830164434]}}, {"type": "Feature", "properties": {"norad_id": 39585, "name": "COSMOS 2251 DEB", "group": "cosmos-2251-debris", "lat": -61.53615427344451, "lon": -118.5196588670424, "alt_km": 708.9737374594752, "timestamp": "2025-12-27T10:28:59.192381+00:00", "meta": {"OBJECT_NAME": "COSMOS 2251 DEB", "OBJECT_ID": "1993-036BUQ", "EPOCH": "2025-12-25T02:49:16.282848", "MEAN_MOTION": 14.58700327, "ECCENTRICITY": 0.00658821, "INCLINATION": 74.0412, "RA_OF_ASC_NODE": 277.7526, "ARG_OF_PERICENTER": 35.2218, "MEAN_ANOMALY": 325.3273, "EPHEMERIS_TYPE": 0, "CLASSIFICATION_TYPE": "U", "NORAD_CAT_ID": 39585, "ELEMENT_SET_NO": 999, "REV_AT_EPOCH": 62701, "BSTAR": 0.00028775805, "MEAN_MOTION_DOT": 1.352e-05, "MEAN_MOTION_DDOT": 0}, "tle": {"line1": "1 39585U 93036BUQ 25359.11754957  .00001352  00000+0  28776-3 0  9997", "line2": "2 39585  74.0412 277.7526 0065882  35.2218 325.3273 14.58700327627014"}}, "geometry": {"type": "Point", "coordinates": [-118.5196588670424, -61.53615427344451]}}, {"type": "Feature", "properties": {"norad_id": 39586, "name": "COSMOS 2251 DEB", "group": "cosmos-2251-debris", "lat": -73.98446536496573, "lon": 109.40339493466843, "alt_km": 795.3570982295332, "timestamp": "2025-12-27T10:28:59.192392+00:00", "meta": {"OBJECT_NAME": "COSMOS 2251 DEB", "OBJECT_ID": "1993-036BUR", "EPOCH": "2025-12-15T23:50:08.053728", "MEAN_MOTION": 14.21232237, "ECCENTRICITY": 0.01008868, "INCLINATION": 74.0082, "RA_OF_ASC_NODE": 222.4068, "ARG_OF_PERICENTER": 356.2296, "MEAN_ANOMALY": 66.1426, "EPHEMERIS_TYPE": 0, "CLASSIFICATION_TYPE": "U", "NORAD_CAT_ID": 39586, "ELEMENT_SET_NO": 999, "REV_AT_EPOCH": 61018, "BSTAR": 0.00043436803, "MEAN_MOTION_DOT": 9.7e-06, "MEAN_MOTION_DDOT": 0}, "tle": {"line1": "1 39586U 93036BUR 25349.99314877  .00000970  00000+0  43437-3 0  9992", "line2": "2 39586  74.0082 222.4068 0100886 356.2296  66.1426 14.21232237610182"}}, "geometry": {"type": "Point", "coordinates": [109.40339493466843, -73.98446536496573]}}, {"type": "Feature", "properties": {"norad_id": 39591, "name": "COSMOS 2251 DEB", "group": "cosmos-2251-debris", "lat": 12.390687011405062, "lon": 35.89313740523143, "alt_km": 773.3868470605194, "timestamp": "2025-12-27T10:28:59.192402+00:00", "meta": {"OBJECT_NAME": "COSMOS 2251 DEB", "OBJECT_ID": "1993-036BUW", "EPOCH": "2025-12-23T22:31:12.958752", "MEAN_MOTION": 14.41832827, "ECCENTRICITY": 0.0029541, "INCLINATION": 74.019, "RA_OF_ASC_NODE": 225.9904, "ARG_OF_PERICENTER": 336.8177, "MEAN_ANOMALY": 38.5171, "EPHEMERIS_TYPE": 0, "CLASSIFICATION_TYPE": "U", "NORAD_CAT_ID": 39591, "ELEMENT_SET_NO": 999, "REV_AT_EPOCH": 61938, "BSTAR": 0.00024268, "MEAN_MOTION_DOT": 7.71e-06, "MEAN_MOTION_DDOT": 0}, "tle": {"line1": "1 39591U 93036BUW 25357.93834443  .00000771  00000+0  24268-3 0  9997", "line2": "2 39591  74.0190 225.9904 0029541 336.8177  38.5171 14.41832827619389"}}, "geometry": {"type": "Point", "coordinates": [35.89313740523143, 12.390687011405062]}}, {"type": "Feature", "properties": {"norad_id": 40218, "name": "COSMOS 2251 DEB", "group": "cosmos-2251-debris", "lat": 47.593257528847396, "lon": -120.12891823547069, "alt_km": 752.3836044077852, "timestamp": "2025-12-27T10:28:59.192411+00:00", "meta": {"OBJECT_NAME": "COSMOS 2251 DEB", "OBJECT_ID": "1993-036BUX", "EPOCH": "2025-12-14T10:48:31.251744", "MEAN_MOTION": 14.41597705, "ECCENTRICITY": 0.00168728, "INCLINATION": 74.0298, "RA_OF_ASC_NODE": 245.6562, "ARG_OF_PERICENTER": 328.6, "MEAN_ANOMALY": 31.4147, "EPHEMERIS_TYPE": 0, "CLASSIFICATION_TYPE": "U", "NORAD_CAT_ID": 40218, "ELEMENT_SET_NO": 999, "REV_AT_EPOCH": 58886, "BSTAR": 0.00046023204, "MEAN_MOTION_DOT": 1.474e-05, "MEAN_MOTION_DDOT": 0}, "tle": {"line1": "1 40218U 93036BUX 25348.45036171  .00001474  00000+0  46023-3 0  9998", "line2": "2 40218  74.0298 245.6562 0016872 328.6000  31.4147 14.41597705588868"}}, "geometry": {"type": "Point", "coordinates": [-120.12891823547069, 47.593257528847396]}}, {"type": "Feature", "properties": {"norad_id": 40223, "name": "COSMOS 2251 DEB", "group": "cosmos-2251-debris", "lat": 72.01469899654633, "lon": 175.87550732636964, "alt_km": 553.7521064013426, "timestamp": "2025-12-27T10:28:59.192421+00:00", "meta": {"OBJECT_NAME": "COSMOS 2251 DEB", "OBJECT_ID": "1993-036BVC", "EPOCH": "2025-12-27T03:48:21.075264", "MEAN_MOTION": 15.05207095, "ECCENTRICITY": 0.0015021, "INCLINATION": 73.9368, "RA_OF_ASC_NODE": 59.0184, "ARG_OF_PERICENTER": 270.4341, "MEAN_ANOMALY": 120.7768, "EPHEMERIS_TYPE": 0, "CLASSIFICATION_TYPE": "U", "NORAD_CAT_ID": 40223, "ELEMENT_SET_NO": 999, "REV_AT_EPOCH": 59591, "BSTAR": 0.0049661, "MEAN_MOTION_DOT": 0.00071739, "MEAN_MOTION_DDOT": 0}, "tle": {"line1": "1 40223U 93036BVC 25361.15857726  .00071739  00000+0  49661-2 0  9994", "line2": "2 40223  73.9368  59.0184 0015021 270.4341 120.7768 15.05207095595910"}}, "geometry": {"type": "Point", "coordinates": [175.87550732636964, 72.01469899654633]}}, {"type": "Feature", "properties": {"norad_id": 40228, "name": "COSMOS 2251 DEB", "group": "cosmos-2251-debris", "lat": -73.91974038555442, "lon": 136.0387460917638, "alt_km": 746.3474561929315, "timestamp": "2025-12-27T10:28:59.192431+00:00", "meta": {"OBJECT_NAME": "COSMOS 2251 DEB", "OBJECT_ID": "1993-036BVH", "EPOCH": "2025-12-24T10:27:05.872032", "MEAN_MOTION": 14.41015471, "ECCENTRICITY": 0.00242372, "INCLINATION": 74.054, "RA_OF_ASC_NODE": 238.9073, "ARG_OF_PERICENTER": 298.7389, "MEAN_ANOMALY": 245.8492, "EPHEMERIS_TYPE": 0, "CLASSIFICATION_TYPE": "U", "NORAD_CAT_ID": 40228, "ELEMENT_SET_NO": 999, "REV_AT_EPOCH": 59089, "BSTAR": 0.00026003762, "MEAN_MOTION_DOT": 8.12e-06, "MEAN_MOTION_DDOT": 0}, "tle": {"line1": "1 40228U 93036BVH 25358.43548463  .00000812  00000+0  26004-3 0  9992", "line2": "2 40228  74.0540 238.9073 0024237 298.7389 245.8492 14.41015471590897"}}, "geometry": {"type": "Point", "coordinates": [136.0387460917638, -73.91974038555442]}}]}